NORAD_CAT_ID,OBJECT_NAME,OBJECT_TYPE,EPOCH,MEAN_MOTION,ECCENTRICITY,INCLINATION,RA_OF_ASC_NODE,ARG_OF_PERICENTER,MEAN_ANOMALY,BSTAR,MEAN_MOTION_DOT,MEAN_MOTION_DDOT,TLE_LINE0,TLE_LINE1,TLE_LINE2,SEMIMAJOR_AXIS,PERIOD,APOGEE,PERIGEE,DECAYED
55670.0,STARLINK-5423,PAYLOAD,2024-07-15 13:33:04,14.98331091,0.0003128,69.9989,242.5616,266.8168,93.2633,3.8403e-05,3.65e-06,0.0,0 STARLINK-5423,1 55670U 23021AU  24197.56463622  .00000365  00000-0  38403-4 0  9994,2 55670  69.9989 242.5616 0003128 266.8168  93.2633 14.98331091 79092,6950.19,96.107,574.229,569.88,0.0
55670.0,STARLINK-5423,PAYLOAD,2024-07-16 05:34:25,14.98329191,0.000301,69.999,240.8784,262.8448,97.2369,8.6736e-06,1e-07,0.0,0 STARLINK-5423,1 55670U 23021AU  24198.23223709  .00000010  00000-0  86736-5 0  9999,2 55670  69.9990 240.8784 0003010 262.8448  97.2369 14.98329191 78893,6950.195,96.107,574.152,569.968,0.0
55670.0,STARLINK-5423,PAYLOAD,2024-07-16 10:22:49,14.9832931,0.0003129,69.9989,240.3734,266.4978,93.5823,2.3421e-06,-6.5e-07,0.0,0 STARLINK-5423,1 55670U 23021AU  24198.43251725 -.00000065  00000-0  23421-5 0  9993,2 55670  69.9989 240.3734 0003129 266.4978  93.5823 14.98329310 79225,6950.195,96.107,574.235,569.885,0.0
55670.0,STARLINK-5423,PAYLOAD,2024-07-17 05:36:26,14.98326297,0.0003194,69.9987,238.3535,267.0468,93.0325,1.4006e-07,-9.1e-07,0.0,0 STARLINK-5423,1 55670U 23021AU  24199.23363955 -.00000091  00000-0  14006-6 0  9990,2 55670  69.9987 238.3535 0003194 267.0468  93.0325 14.98326297 79045,6950.204,96.107,574.289,569.849,0.0
55670.0,STARLINK-5423,PAYLOAD,2024-07-17 12:00:58,14.9832804,0.0003183,69.9986,237.6801,266.5924,93.4871,2.1783e-05,1.67e-06,0.0,0 STARLINK-5423,1 55670U 23021AU  24199.50067912  .00000167  00000-0  21783-4 0  9995,2 55670  69.9986 237.6801 0003183 266.5924  93.4871 14.98328040 79386,6950.199,96.107,574.276,569.852,0.0
55670.0,STARLINK-5423,PAYLOAD,2024-07-18 05:38:27,14.98330567,0.000329,69.9981,235.8278,266.9801,93.0982,6.5349e-05,6.87e-06,0.0,0 STARLINK-5423,1 55670U 23021AU  24200.23503676  .00000687  00000-0  65349-4 0  9993,2 55670  69.9981 235.8278 0003290 266.9801  93.0982 14.98330567 79191,6950.191,96.107,574.343,569.77,0.0
55670.0,STARLINK-5423,PAYLOAD,2024-07-18 12:02:59,14.98331753,0.0003271,69.9982,235.1547,266.8071,93.2713,7.6422e-05,8.19e-06,0.0,0 STARLINK-5423,1 55670U 23021AU  24200.50207595  .00000819  00000-0  76422-4 0  9995,2 55670  69.9982 235.1547 0003271 266.8071  93.2713 14.98331753 79531,6950.187,96.107,574.326,569.779,0.0
55670.0,STARLINK-5423,PAYLOAD,2024-07-19 05:40:28,14.98328702,0.0003272,69.9982,233.3033,267.207,92.8715,6.397e-05,6.7e-06,0.0,0 STARLINK-5423,1 55670U 23021AU  24201.23643865  .00000670  00000-0  63970-4 0  9999,2 55670  69.9982 233.3033 0003272 267.2070  92.8715 14.98328702 79342,6950.197,96.107,574.336,569.788,0.0
55670.0,STARLINK-5423,PAYLOAD,2024-07-19 12:05:00,14.98328408,0.0003316,69.9982,232.6301,268.881,91.1969,5.1601e-05,5.23e-06,0.0,0 STARLINK-5423,1 55670U 23021AU  24201.50347894  .00000523  00000-0  51601-4 0  9997,2 55670  69.9982 232.6301 0003316 268.8810  91.1969 14.98328408 79683,6950.198,96.107,574.367,569.758,0.0
55670.0,STARLINK-5423,PAYLOAD,2024-07-20 05:42:28,14.98333886,0.0003363,69.9981,230.7779,269.8708,90.2065,4.7018e-05,4.68e-06,0.0,0 STARLINK-5423,1 55670U 23021AU  24202.23783502  .00000468  00000-0  47018-4 0  9993,2 55670  69.9981 230.7779 0003363 269.8708  90.2065 14.98333886 79491,6950.181,96.107,574.383,569.709,0.0
55670.0,STARLINK-5423,PAYLOAD,2024-07-20 12:07:01,14.98335467,0.0003354,69.9981,230.1041,270.4433,89.6341,6.5776e-05,6.92e-06,0.0,0 STARLINK-5423,1 55670U 23021AU  24202.50487325  .00000692  00000-0  65776-4 0  9997,2 55670  69.9981 230.1041 0003354 270.4433  89.6341 14.98335467 79834,6950.176,96.107,574.372,569.71,0.0
55670.0,STARLINK-5423,PAYLOAD,2024-07-21 05:44:29,14.98331141,0.000336,69.9981,228.2523,270.8947,89.1827,6.5428e-05,6.88e-06,0.0,0 STARLINK-5423,1 55670U 23021AU  24203.23923466  .00000688  00000-0  65428-4 0  9998,2 55670  69.9981 228.2523 0003360 270.8947  89.1827 14.98331141 79646,6950.189,96.107,574.39,569.719,0.0
55670.0,STARLINK-5423,PAYLOAD,2024-07-21 12:09:02,14.98332056,0.0003355,69.9983,227.5791,270.7699,89.3075,7.2283e-05,7.7e-06,0.0,0 STARLINK-5423,1 55670U 23021AU  24203.50627402  .00000770  00000-0  72283-4 0  9998,2 55670  69.9983 227.5791 0003355 270.7699  89.3075 14.98332056 79984,6950.187,96.107,574.383,569.72,0.0
55670.0,STARLINK-5423,PAYLOAD,2024-07-22 12:11:03,14.98332168,0.0003302,69.9986,225.0546,269.8899,90.1881,1.2103e-05,5.1e-07,0.0,0 STARLINK-5423,1 55670U 23021AU  24204.50767419  .00000051  00000-0  12103-4 0  9999,2 55670  69.9986 225.0546 0003302 269.8899  90.1881 14.98332168 79834,6950.186,96.107,574.346,569.756,0.0
55670.0,STARLINK-5423,PAYLOAD,2024-07-23 09:00:47,14.98330099,0.0003316,69.9987,222.866,268.7313,91.3466,2.5308e-05,2.09e-06,0.0,0 STARLINK-5423,1 55670U 23021AU  24205.37555487  .00000209  00000-0  25308-4 0  9991,2 55670  69.9987 222.8660 0003316 268.7313  91.3466 14.98330099 80263,6950.193,96.107,574.362,569.753,0.0
55670.0,STARLINK-5423,PAYLOAD,2024-07-24 05:50:32,14.98327163,0.000337,69.9984,220.6773,268.151,91.9263,2.0296e-05,1.49e-06,0.0,0 STARLINK-5423,1 55670U 23021AU  24206.24343724  .00000149  00000-0  20296-4 0  9991,2 55670  69.9984 220.6773 0003370 268.1510  91.9263 14.98327163 80094,6950.202,96.107,574.409,569.724,0.0
55670.0,STARLINK-5423,PAYLOAD,2024-07-24 10:38:57,14.98328401,0.0003354,69.9984,220.1725,268.3007,91.7768,3.2918e-05,3e-06,0.0,0 STARLINK-5423,1 55670U 23021AU  24206.44371644  .00000300  00000-0  32918-4 0  9998,2 55670  69.9984 220.1725 0003354 268.3007  91.7768 14.98328401 80422,6950.198,96.107,574.394,569.732,0.0
55670.0,STARLINK-5423,PAYLOAD,2024-07-25 05:52:33,14.98331112,0.0003434,69.9982,218.1523,268.4515,91.6251,6.4196e-05,6.73e-06,0.0,0 STARLINK-5423,1 55670U 23021AU  24207.24483388  .00000673  00000-0  64196-4 0  9992,2 55670  69.9982 218.1523 0003434 268.4515  91.6251 14.98331112 80549,6950.189,96.107,574.441,569.668,0.0
55670.0,STARLINK-5423,PAYLOAD,2024-07-25 09:04:49,14.98332104,0.0003422,69.9982,217.8157,268.4915,91.5852,7.3977e-05,7.9e-06,0.0,0 STARLINK-5423,1 55670U 23021AU  24207.37835298  .00000790  00000-0  73977-4 0  9994,2 55670  69.9982 217.8157 0003422 268.4915  91.5852 14.98332104 80266,6950.186,96.107,574.43,569.673,0.0
55670.0,STARLINK-5423,PAYLOAD,2024-07-26 09:06:50,14.98333878,0.000342,69.9982,215.2913,266.8756,93.2012,8.0467e-05,8.67e-06,0.0,0 STARLINK-5423,1 55670U 23021AU  24208.37975001  .00000867  00000-0  80467-4 0  9999,2 55670  69.9982 215.2913 0003420 266.8756  93.2012 14.98333878 80414,6950.181,96.107,574.423,569.669,0.0
55670.0,STARLINK-5423,PAYLOAD,2024-07-27 05:56:35,14.98333123,0.0003358,69.9985,213.1034,267.4281,92.6494,1.6134e-05,9.9e-07,0.0,0 STARLINK-5423,1 55670U 23021AU  24209.24763030  .00000099  00000-0  16134-4 0  9990,2 55670  69.9985 213.1034 0003358 267.4281  92.6494 14.98333123 80845,6950.183,96.107,574.382,569.714,0.0
55670.0,STARLINK-5423,PAYLOAD,2024-07-27 10:44:59,14.98334111,0.0003357,69.9984,212.598,268.0459,92.0316,2.8233e-05,2.44e-06,0.0,0 STARLINK-5423,1 55670U 23021AU  24209.44790893  .00000244  00000-0  28233-4 0  9994,2 55670  69.9984 212.5980 0003357 268.0459  92.0316 14.98334111 80575,6950.18,96.107,574.378,569.712,0.0
55670.0,STARLINK-5423,PAYLOAD,2024-07-28 05:58:36,14.9832919,0.0003232,69.9986,210.5777,267.6033,92.4756,-2.0654e-05,-3.39e-06,0.0,0 STARLINK-5423,1 55670U 23021AU  24210.24903281 -.00000339  00000-0 -20654-4 0  9997,2 55670  69.9986 210.5777 0003232 267.6033  92.4756 14.98329190 80690,6950.195,96.107,574.307,569.814,0.0
55670.0,STARLINK-5423,PAYLOAD,2024-07-28 09:10:52,14.9832882,0.0003244,69.9986,210.2411,267.5064,92.5724,-2.5587e-05,-3.98e-06,0.0,0 STARLINK-5423,1 55670U 23021AU  24210.38255321 -.00000398  00000-0 -25587-4 0  9992,2 55670  69.9986 210.2411 0003244 267.5064  92.5724 14.98328820 81010,6950.197,96.107,574.316,569.807,0.0
55670.0,STARLINK-5423,PAYLOAD,2024-07-29 10:49:01,14.98328872,0.0003274,69.9987,207.548,268.0435,92.0349,-1.8424e-07,-9.5e-07,0.0,0 STARLINK-5423,1 55670U 23021AU  24211.45071311 -.00000095  00000-0 -18424-6 0  9994,2 55670  69.9987 207.5480 0003274 268.0435  92.0349 14.98328872 80875,6950.196,96.107,574.337,569.786,0.0
55670.0,STARLINK-5423,PAYLOAD,2024-07-29 17:13:33,14.9833271,0.0003387,69.9984,206.8746,269.7541,90.323,5.9894e-05,6.22e-06,0.0,0 STARLINK-5423,1 55670U 23021AU  24211.71774906  .00000622  00000-0  59894-4 0  9991,2 55670  69.9984 206.8746 0003387 269.7541  90.3230 14.98332710 81215,6950.185,96.107,574.404,569.695,0.0
55670.0,STARLINK-5423,PAYLOAD,2024-07-30 06:02:37,14.98337034,0.0003436,69.9984,205.5282,270.0486,90.028,0.00012828,1.438e-05,0.0,0 STARLINK-5423,1 55670U 23021AU  24212.25182325  .00001438  00000-0  12828-3 0  9990,2 55670  69.9984 205.5282 0003436 270.0486  90.0280 14.98337034 80994,6950.171,96.107,574.424,569.648,0.0
55670.0,STARLINK-5423,PAYLOAD,2024-07-30 09:14:53,14.9833815,0.0003416,69.9984,205.1916,270.2035,89.8733,0.0001371,1.544e-05,0.0,0 STARLINK-5423,1 55670U 23021AU  24212.38534184  .00001544  00000-0  13710-3 0  9997,2 55670  69.9984 205.1916 0003416 270.2035  89.8733 14.98338150 81310,6950.168,96.106,574.407,569.659,0.0
55670.0,STARLINK-5423,PAYLOAD,2024-07-30 17:15:34,14.98331639,0.0003506,69.9982,204.3491,271.8529,88.2229,6.4848e-05,6.81e-06,0.0,0 STARLINK-5423,1 55670U 23021AU  24212.71914666  .00000681  00000-0  64848-4 0  9991,2 55670  69.9982 204.3491 0003506 271.8529  88.2229 14.98331639 81062,6950.188,96.107,574.49,569.616,0.0
55670.0,STARLINK-5423,PAYLOAD,2024-07-31 04:28:31,14.98324765,0.0003346,69.9987,203.1722,270.3347,89.7428,-1.748e-05,-3.02e-06,0.0,0 STARLINK-5423,1 55670U 23021AU  24213.18647423 -.00000302  00000-0 -17480-4 0  9999,2 55670  69.9987 203.1722 0003346 270.3347  89.7428 14.98324765 81132,6950.209,96.107,574.4,569.749,0.0
